TIANMU-1 07             
1 57399U 23101A   26065.57454230  .00008352  00000+0  29795-3 0  9991
2 57399  97.2728 118.5929 0004609 142.4105 217.7458 15.29118809145964
STARLINK-32850          
1 62950U 25029C   26068.73074185  .00024386  00000+0  83268-3 0  9999
2 62950  53.1582 232.2819 0000932  78.1126 281.9979 15.30204094 61330
