[{"OBJECT_NAME":"TIANMU-1 07","OBJECT_ID":"2023-101A","EPOCH":"2026-03-06T13:47:20.454720","MEAN_MOTION":15.29118809,"ECCENTRICITY":0.00046097,"INCLINATION":97.2728,"RA_OF_ASC_NODE":118.5929,"ARG_OF_PERICENTER":142.4105,"MEAN_ANOMALY":217.7458,"EPHEMERIS_TYPE":0,"CLASSIFICATION_TYPE":"U","NORAD_CAT_ID":57399,"ELEMENT_SET_NO":999,"REV_AT_EPOCH":14596,"BSTAR":0.00029794732,"MEAN_MOTION_DOT":8.352e-5,"MEAN_MOTION_DDOT":0},{"OBJECT_NAME":"STARLINK-32850","OBJECT_ID":"2025-029C","EPOCH":"2026-03-09T17:32:16.095840","MEAN_MOTION":15.30204094,"ECCENTRICITY":9.321e-5,"INCLINATION":53.1582,"RA_OF_ASC_NODE":232.2819,"ARG_OF_PERICENTER":78.1126,"MEAN_ANOMALY":281.9979,"EPHEMERIS_TYPE":0,"CLASSIFICATION_TYPE":"U","NORAD_CAT_ID":62950,"ELEMENT_SET_NO":999,"REV_AT_EPOCH":6133,"BSTAR":0.00083267592,"MEAN_MOTION_DOT":0.00024386,"MEAN_MOTION_DDOT":0}]
